{
  "type": "FeatureCollection",
  "features": [
    {
      "type": "Feature",
      "properties": {
        "norad_id": 41890,
        "name": "CYGFM07",
        "group": "weather",
        "lat": -8.626970956186195,
        "lon": -90.24258511586932,
        "alt_km": 408.63851181458904,
        "timestamp": "2025-12-27T20:30:58.931879+00:00",
        "meta_object_name": "CYGFM07",
        "meta_object_id": "2016-078G",
        "meta_epoch": "2025-12-27T05:07:48.573696",
        "meta_mean_motion": 15.50634821,
        "meta_eccentricity": 0.000896,
        "meta_inclination": 34.9473,
        "meta_ra_of_asc_node": 286.5126,
        "meta_arg_of_pericenter": 338.6646,
        "meta_mean_anomaly": 21.3702,
        "meta_ephemeris_type": 0,
        "meta_classification_type": "U",
        "meta_norad_cat_id": 41890,
        "meta_element_set_no": 999,
        "meta_rev_at_epoch": 50220,
        "meta_bstar": 0.00041586,
        "meta_mean_motion_dot": 0.00024657,
        "meta_mean_motion_ddot": 0,
        "tle_line1": "1 41890U 16078G   25361.21375664  .00024657  00000+0  41586-3 0  9995",
        "tle_line2": "2 41890  34.9473 286.5126 0008960 338.6646  21.3702 15.50634821502202"
      },
      "geometry": {
        "type": "Point",
        "coordinates": [
          -90.24258511586932,
          -8.626970956186195
        ]
      }
    },
    {
      "type": "Feature",
      "properties": {
        "norad_id": 41891,
        "name": "CYGFM03",
        "group": "weather",
        "lat": 3.442172818689113,
        "lon": 99.29089407378851,
        "alt_km": 418.9630858548253,
        "timestamp": "2025-12-27T20:30:58.931890+00:00",
        "meta_object_name": "CYGFM03",
        "meta_object_id": "2016-078H",
        "meta_epoch": "2025-12-27T12:02:37.312800",
        "meta_mean_motion": 15.50543033,
        "meta_eccentricity": 0.0008753,
        "meta_inclination": 34.9428,
        "meta_ra_of_asc_node": 286.5495,
        "meta_arg_of_pericenter": 327.1486,
        "meta_mean_anomaly": 32.8692,
        "meta_ephemeris_type": 0,
        "meta_classification_type": "U",
        "meta_norad_cat_id": 41891,
        "meta_element_set_no": 999,
        "meta_rev_at_epoch": 50222,
        "meta_bstar": 0.00043509,
        "meta_mean_motion_dot": 0.00025717,
        "meta_mean_motion_ddot": 0,
        "tle_line1": "1 41891U 16078H   25361.50182075  .00025717  00000+0  43509-3 0  9995",
        "tle_line2": "2 41891  34.9428 286.5495 0008753 327.1486  32.8692 15.50543033502228"
      },
      "geometry": {
        "type": "Point",
        "coordinates": [
          99.29089407378851,
          3.442172818689113
        ]
      }
    },
    {
      "type": "Feature",
      "properties": {
        "norad_id": 43010,
        "name": "FENGYUN 3D",
        "group": "weather",
        "lat": 4.025617353886261,
        "lon": 149.03125103325763,
        "alt_km": 827.7797615206728,
        "timestamp": "2025-12-27T20:30:58.931900+00:00",
        "meta_object_name": "FENGYUN 3D",
        "meta_object_id": "2017-072A",
        "meta_epoch": "2025-12-27T12:55:30.614592",
        "meta_mean_motion": 14.19689013,
        "meta_eccentricity": 0.0001646,
        "meta_inclination": 98.9917,
        "meta_ra_of_asc_node": 328.0717,
        "meta_arg_of_pericenter": 143.1689,
        "meta_mean_anomaly": 216.9599,
        "meta_ephemeris_type": 0,
        "meta_classification_type": "U",
        "meta_norad_cat_id": 43010,
        "meta_element_set_no": 999,
        "meta_rev_at_epoch": 42063,
        "meta_bstar": 0.00019678,
        "meta_mean_motion_dot": 3.7e-06,
        "meta_mean_motion_ddot": 0,
        "tle_line1": "1 43010U 17072A   25361.53854878  .00000370  00000+0  19678-3 0  9993",
        "tle_line2": "2 43010  98.9917 328.0717 0001646 143.1689 216.9599 14.19689013420638"
      },
      "geometry": {
        "type": "Point",
        "coordinates": [
          149.03125103325763,
          4.025617353886261
        ]
      }
    },
    {
      "type": "Feature",
      "properties": {
        "norad_id": 43013,
        "name": "NOAA 20 (JPSS-1)",
        "group": "weather",
        "lat": -40.321947687524656,
        "lon": -54.49142309122863,
        "alt_km": 833.8235554730836,
        "timestamp": "2025-12-27T20:30:58.931912+00:00",
        "meta_object_name": "NOAA 20 (JPSS-1)",
        "meta_object_id": "2017-073A",
        "meta_epoch": "2025-12-27T10:33:31.490784",
        "meta_mean_motion": 14.19529775,
        "meta_eccentricity": 0.0002043,
        "meta_inclination": 98.7617,
        "meta_ra_of_asc_node": 297.5771,
        "meta_arg_of_pericenter": 66.3036,
        "meta_mean_anomaly": 293.8354,
        "meta_ephemeris_type": 0,
        "meta_classification_type": "U",
        "meta_norad_cat_id": 43013,
        "meta_element_set_no": 999,
        "meta_rev_at_epoch": 42010,
        "meta_bstar": 7.9226e-05,
        "meta_mean_motion_dot": 1.23e-06,
        "meta_mean_motion_ddot": 0,
        "tle_line1": "1 43013U 17073A   25361.43994781  .00000123  00000+0  79226-4 0  9996",
        "tle_line2": "2 43013  98.7617 297.5771 0002043  66.3036 293.8354 14.19529775420103"
      },
      "geometry": {
        "type": "Point",
        "coordinates": [
          -54.49142309122863,
          -40.321947687524656
        ]
      }
    },
    {
      "type": "Feature",
      "properties": {
        "norad_id": 43226,
        "name": "GOES 17",
        "group": "weather",
        "lat": -0.3694986498701408,
        "lon": -45.16160010821614,
        "alt_km": 35775.007465873234,
        "timestamp": "2025-12-27T20:30:58.931924+00:00",
        "meta_object_name": "GOES 17",
        "meta_object_id": "2018-022A",
        "meta_epoch": "2025-12-27T08:56:34.692000",
        "meta_mean_motion": 1.00271241,
        "meta_eccentricity": 0.0003239,
        "meta_inclination": 0.4934,
        "meta_ra_of_asc_node": 88.9909,
        "meta_arg_of_pericenter": 191.4185,
        "meta_mean_anomaly": 220.3403,
        "meta_ephemeris_type": 0,
        "meta_classification_type": "U",
        "meta_norad_cat_id": 43226,
        "meta_element_set_no": 999,
        "meta_rev_at_epoch": 2870,
        "meta_bstar": 0,
        "meta_mean_motion_dot": -1.6e-06,
        "meta_mean_motion_ddot": 0,
        "tle_line1": "1 43226U 18022A   25361.37262375 -.00000160  00000+0  00000+0 0  9998",
        "tle_line2": "2 43226   0.4934  88.9909 0003239 191.4185 220.3403  1.00271241 28707"
      },
      "geometry": {
        "type": "Point",
        "coordinates": [
          -45.16160010821614,
          -0.3694986498701408
        ]
      }
    },
    {
      "type": "Feature",
      "properties": {
        "norad_id": 43491,
        "name": "FENGYUN 2H",
        "group": "weather",
        "lat": 1.7631519462473995,
        "lon": 123.58604277174261,
        "alt_km": 35792.36313754691,
        "timestamp": "2025-12-27T20:30:58.931942+00:00",
        "meta_object_name": "FENGYUN 2H",
        "meta_object_id": "2018-050A",
        "meta_epoch": "2025-12-27T09:57:15.328800",
        "meta_mean_motion": 1.00269954,
        "meta_eccentricity": 0.0002498,
        "meta_inclination": 2.5864,
        "meta_ra_of_asc_node": 81.1754,
        "meta_arg_of_pericenter": 166.7806,
        "meta_mean_anomaly": 76.826,
        "meta_ephemeris_type": 0,
        "meta_classification_type": "U",
        "meta_norad_cat_id": 43491,
        "meta_element_set_no": 999,
        "meta_rev_at_epoch": 2771,
        "meta_bstar": 0,
        "meta_mean_motion_dot": -1.08e-06,
        "meta_mean_motion_ddot": 0,
        "tle_line1": "1 43491U 18050A   25361.41476075 -.00000108  00000+0  00000+0 0  9994",
        "tle_line2": "2 43491   2.5864  81.1754 0002498 166.7806  76.8260  1.00269954 27713"
      },
      "geometry": {
        "type": "Point",
        "coordinates": [
          123.58604277174261,
          1.7631519462473995
        ]
      }
    },
    {
      "type": "Feature",
      "properties": {
        "norad_id": 43689,
        "name": "METOP-C",
        "group": "weather",
        "lat": -26.4037327897994,
        "lon": -124.96420125398868,
        "alt_km": 826.3020338128999,
        "timestamp": "2025-12-27T20:30:58.931954+00:00",
        "meta_object_name": "METOP-C",
        "meta_object_id": "2018-087A",
        "meta_epoch": "2025-12-27T11:06:02.534112",
        "meta_mean_motion": 14.21490014,
        "meta_eccentricity": 4.99e-05,
        "meta_inclination": 98.6909,
        "meta_ra_of_asc_node": 59.0049,
        "meta_arg_of_pericenter": 10.8066,
        "meta_mean_anomaly": 349.3122,
        "meta_ephemeris_type": 0,
        "meta_classification_type": "U",
        "meta_norad_cat_id": 43689,
        "meta_element_set_no": 999,
        "meta_rev_at_epoch": 37043,
        "meta_bstar": 8.76e-05,
        "meta_mean_motion_dot": 1.48e-06,
        "meta_mean_motion_ddot": 0,
        "tle_line1": "1 43689U 18087A   25361.46252933  .00000148  00000+0  87600-4 0  9992",
        "tle_line2": "2 43689  98.6909  59.0049 0000499  10.8066 349.3122 14.21490014370430"
      },
      "geometry": {
        "type": "Point",
        "coordinates": [
          -124.96420125398868,
          -26.4037327897994
        ]
      }
    }
  ]
}